satname,norad_id,inclination_deg,eccentricity,mean_motion_rev_per_day,perigee_km,apogee_km,l1,l2
STARLINK-1496,45780,53.0548,0.0001651,15.37289001,453.0019633353277,455.2579778890249,1 45780U 20038BC  26006.31133730  .00092500  00000+0  24752-2 0  9999,2 45780  53.0548 113.7540 0001651  27.6380 332.4710 15.37289001307388
STARLINK-1497,45781,53.0315,0.0006412,15.79323573,328.05326049679843,336.6587967567093,1 45781U 20038BD  26006.33334491  .00265516  00000+0  14021-2 0  9996,2 45781  53.0315  33.8231 0006412  38.4897 175.9036 15.79323573  5816
STARLINK-1513,45786,53.0546,0.0001179,15.06392661,546.4175497606739,548.0505522545009,1 45786U 20038BJ  26006.28264248 -.00001464  00000+0 -79411-4 0  9995,2 45786  53.0546 116.7761 0001179  79.4371 280.6751 15.06392661307359
STARLINK-1522,46027,53.0546,0.0001523,15.06400113,546.156481076946,548.2659421422031,1 46027U 20055A   26006.32965424  .00002158  00000+0  16373-3 0  9998,2 46027  53.0546  46.5625 0001523  85.9525 274.1638 15.06400113299481
STARLINK-1523,46028,53.0556,0.0001496,15.0639472,546.1917058599183,548.2637749902533,1 46028U 20055B   26006.27805334  .00003002  00000+0  22040-3 0  9993,2 46028  53.0556  46.7983 0001496 105.2364 254.8791 15.06394720299490
STARLINK-1526,46029,53.0555,0.000147,15.06398746,546.1973744673478,548.2334280733212,1 46029U 20055C   26006.27067809  .00006348  00000+0  44468-3 0  9995,2 46029  53.0555  46.8282 0001470 105.9506 254.1645 15.06398746299482
STARLINK-1555,46032,53.0542,0.0001394,15.0640296,546.2370936551051,548.167878303796,1 46032U 20055F   26006.32228204  .00006186  00000+0  43378-3 0  9992,2 46032  53.0542  46.5961 0001394  70.6776 289.4364 15.06402960299499
STARLINK-1556,46033,53.0543,0.000154,15.06405059,546.1295515851571,548.2625541654425,1 46033U 20055G   26006.30385394  .00008800  00000+0  60885-3 0  9992,2 46033  53.0543  46.6796 0001540  79.7022 280.4141 15.06405059299468
STARLINK-1557,46034,53.0549,0.0001259,15.06392658,546.3621559857502,548.1059644187089,1 46034U 20055H   26006.30752547  .00001129  00000+0  94666-4 0  9993,2 46034  53.0549  46.6615 0001259  92.4449 267.6684 15.06392658299466
STARLINK-1558,46035,53.0541,0.0001444,15.06397815,546.2182333579021,548.2182759554462,1 46035U 20055J   26006.31491242  .00003738  00000+0  26973-3 0  9990,2 46035  53.0541  46.6329 0001444  95.5382 264.5771 15.06397815299493
STARLINK-1560,46036,53.0533,0.0001382,15.06400405,546.2532336727227,548.1673996710506,1 46036U 20055K   26006.30016547  .00006145  00000+0  43104-3 0  9991,2 46036  53.0533  46.6971 0001382 103.7001 256.4142 15.06400405299491
STARLINK-1567,46038,53.0535,3.71e-05,15.06407321,546.9321906195064,547.4460498176268,1 46038U 20055M   26006.31120334 -.00001247  00000+0 -64840-4 0  9995,2 46038  53.0535  46.6455 0000371  68.1995 291.9034 15.06407321299482
STARLINK-1569,46039,53.0549,0.000144,15.06387391,546.2529472195774,548.2474587340348,1 46039U 20055N   26006.31858335 -.00001119  00000+0 -56280-4 0  9992,2 46039  53.0549  46.6135 0001440  85.7720 274.3434 15.06387391299485
STARLINK-1582,46043,53.055,0.0001282,15.06395013,546.3390107725863,548.1146740617824,1 46043U 20055S   26006.32595819  .00010037  00000+0  69185-3 0  9997,2 46043  53.0550  46.5784 0001282  79.1256 280.9877 15.06395013299480
STARLINK-1591,46045,53.0538,0.000143,15.06401531,546.2165414749688,548.1971898205447,1 46045U 20055U   26006.28542407  .00003884  00000+0  27946-3 0  9990,2 46045  53.0538  46.7619 0001430  84.4424 275.6728 15.06401531299465
STARLINK-1524,46047,53.0543,0.0001418,15.06401922,546.2236537011377,548.1876808815814,1 46047U 20055W   26006.10573425  .00002438  00000+0  18252-3 0  9991,2 46047  53.0543  37.5693 0001418  90.6236 269.4915 15.06401922299596
STARLINK-1527,46048,53.0549,0.0001401,15.06403757,546.2298035785498,548.170283018083,1 46048U 20055X   26006.30108514  .00003985  00000+0  28625-3 0  9990,2 46048  53.0549  36.6914 0001401  78.8468 281.2678 15.06403757299604
STARLINK-1540,46051,53.0547,0.0001525,15.06402909,546.146527991149,548.2587565820459,1 46051U 20055AA  26006.33426192  .00004477  00000+0  31924-3 0  9995,2 46051  53.0547  36.5424 0001525  96.5608 263.5555 15.06402909299640
STARLINK-1541,46052,53.0561,0.0001442,15.06396912,546.222385602885,548.2196588564966,1 46052U 20055AB  26006.31951977  .00003469  00000+0  25171-3 0  9995,2 46052  53.0561  36.6095 0001442  86.1234 273.9920 15.06396912299603
STARLINK-1543,46053,53.0546,0.0001257,15.06399037,546.3439927114205,548.085026080882,1 46053U 20055AC  26006.32319835  .00001019  00000+0  87281-4 0  9998,2 46053  53.0546  36.5923 0001257  84.6950 275.4183 15.06399037299630
STARLINK-1548,46054,53.055,0.0001703,15.06394408,546.0493068877577,548.4080864440411,1 46054U 20055AD  26006.26423113  .00004158  00000+0  29790-3 0  9994,2 46054  53.0550  36.8546 0001703  85.3789 274.7395 15.06394408299627
STARLINK-1554,46055,53.0554,0.0001363,15.06405796,546.2498715027759,548.1377166772454,1 46055U 20055AE  26006.31582904  .00002419  00000+0  18124-3 0  9992,2 46055  53.0554  36.6247 0001363  93.6902 266.4243 15.06405796299633
STARLINK-1564,46058,53.0538,0.0001492,15.06394778,546.1942982696573,548.2608270551555,1 46058U 20055AH  26006.32695082  .00001178  00000+0  98006-4 0  9997,2 46058  53.0538  37.0383 0001492  80.8701 279.2457 15.06394778299627
STARLINK-1570,46059,53.055,0.0001207,15.06387252,546.4147347109438,548.0865232845845,1 46059U 20055AJ  26006.29003065 -.00000033  00000+0  16682-4 0  9998,2 46059  53.0550  36.7414 0001207 100.3475 259.7651 15.06387252299586
STARLINK-1572,46060,53.0539,0.0001379,15.0639862,546.2607812933611,548.1707935921368,1 46060U 20055AK  26006.28633648  .00004105  00000+0  29434-3 0  9996,2 46060  53.0539  36.7577 0001379  95.2373 264.8773 15.06398620299598
STARLINK-1573,46061,53.0551,0.0001458,15.06395416,546.2158894055465,548.2353251418272,1 46061U 20055AL  26006.28267276  .00006568  00000+0  45950-3 0  9993,2 46061  53.0551  36.8112 0001458  73.9760 286.1390 15.06395416299626
STARLINK-1577,46063,53.0543,0.0001498,15.06397484,546.1818507575254,548.2566874957547,1 46063U 20055AN  26006.30845821  .00001898  00000+0  14628-3 0  9995,2 46063  53.0543  36.6581 0001498  90.0507 270.0654 15.06397484299622
STARLINK-1583,46064,53.053,0.0001473,15.06412217,546.1540165186871,548.1942131731203,1 46064U 20055AP  26006.34162948  .00009563  00000+0  65981-3 0  9997,2 46064  53.0530  36.5106 0001473  93.7020 266.4137 15.06412217299632
